H1 CPF 01  gfz 2022 08 23 00  7343 terrasarx 
H2 0702601  6201 31698    2022 08 22 12 59 42 2022 08 27 00 00 42   120 1 1  0 0 0
H9
10 0 59815   6462.000000  0   -2728363.419  -6027642.483  -1928601.076
10 0 59815   6582.000000  0   -2973675.956  -6127493.330  -1045819.908
10 0 59815   6702.000000  0   -3167837.695  -6116496.933   -144648.339
10 0 59815   6822.000000  0   -3305493.110  -5995720.734    759066.326
10 0 59815   6942.000000  0   -3382317.749  -5768256.544   1649414.968
10 0 59815   7062.000000  0   -3395131.547  -5439149.037   2510716.164
10 0 59815   7182.000000  0   -3341988.459  -5015284.418   3327800.890
10 0 59815   7302.000000  0   -3222240.404  -4505243.442   4086286.433
10 0 59815   7422.000000  0   -3036574.207  -3919122.047   4772834.163
10 0 59815   7542.000000  0   -2787021.069  -3268323.910   5375385.430
10 0 59815   7662.000000  0   -2476937.905  -2565331.144   5883371.678
10 0 59815   7782.000000  0   -2110961.534  -1823459.305   6287895.424
10 0 59815   7902.000000  0   -1694937.248  -1056601.447   6581881.973
10 0 59815   8022.000000  0   -1235821.933   -278963.644   6760197.457
10 0 59815   8142.000000  0    -741566.345    495198.885   6819730.357
10 0 59815   8262.000000  0    -220977.870   1251841.608   6759442.977
10 0 59815   8382.000000  0     316436.316   1977385.209   6580388.883
10 0 59815   8502.000000  0     860642.691   2658959.287   6285695.384
10 0 59815   8622.000000  0    1401267.861   3284630.489   5880511.959
10 0 59815   8742.000000  0    1927795.236   3843613.673   5371926.028
10 0 59815   8862.000000  0    2429769.516   4326462.443   4768845.441
10 0 59815   8982.000000  0    2897005.944   4725234.778   4081847.466
10 0 59815   9102.000000  0    3319797.567   5033628.904   3322997.215
10 0 59815   9222.000000  0    3689119.028   5247090.880   2505640.064
10 0 59815   9342.000000  0    3996822.939   5362887.994   1644163.011
10 0 59815   9462.000000  0    4235817.725   5380142.138    753737.032
10 0 59815   9582.000000  0    4400228.043   5299830.056   -149957.099
10 0 59815   9702.000000  0    4485530.669   5124741.759  -1051014.648
10 0 59815   9822.000000  0    4488664.417   4859403.146  -1933594.309
10 0 59815   9942.000000  0    4408110.146   4509964.860  -2782204.068
10 0 59815  10062.000000  0    4243939.225   4084059.960  -3581978.931
10 0 59815  10182.000000  0    3997828.497   3590633.438  -4318943.870
10 0 59815  10302.000000  0    3673043.992   3039749.426  -4980255.780
10 0 59815  10422.000000  0    3274393.780   2442381.275  -5554422.464
10 0 59815  10542.000000  0    2808150.684   1810189.352  -6031494.297
10 0 59815  10662.000000  0    2281948.012   1155291.281  -6403225.972
10 0 59815  10782.000000  0    1704650.468    490030.307  -6663206.652
10 0 59815  10902.000000  0    1086204.705   -173253.643  -6806959.670
10 0 59815  11022.000000  0     437468.835   -822448.603  -6832012.995
10 0 59815  11142.000000  0    -229975.613  -1445886.791  -6737935.319
10 0 59815  11262.000000  0    -904024.663  -2032547.963  -6526342.220
10 0 59815  11382.000000  0   -1572266.124  -2572250.019  -6200872.775
10 0 59815  11502.000000  0   -2222202.985  -3055823.769  -5767133.184
10 0 59815  11622.000000  0   -2841482.285  -3475268.242  -5232610.389
10 0 59815  11742.000000  0   -3418128.553  -3823886.425  -4606555.402
10 0 59815  11862.000000  0   -3940776.805  -4096397.253  -3899833.750
10 0 59815  11982.000000  0   -4398899.188  -4289021.013  -3124746.469
10 0 59815  12102.000000  0   -4783021.888  -4399536.902  -2294822.979
10 0 59815  12222.000000  0   -5084926.369  -4427310.034  -1424588.005
10 0 59815  12342.000000  0   -5297829.867  -4373286.951   -529306.965
10 0 59815  12462.000000  0   -5416540.406  -4239959.405    375285.553
10 0 59815  12582.000000  0   -5437581.946  -4031296.864   1273269.698
10 0 59815  12702.000000  0   -5359284.753  -3752647.924   2148830.381
10 0 59815  12822.000000  0   -5181838.731  -3410613.061   2986545.017
10 0 59815  12942.000000  0   -4907308.982  -3012893.309   3771662.731
10 0 59815  13062.000000  0   -4539613.499  -2568118.406   4490370.290
10 0 59815  13182.000000  0   -4084462.474  -2085658.138   5130037.799
10 0 59815  13302.000000  0   -3549263.426  -1575423.635   5679438.799
10 0 59815  13422.000000  0   -2942994.972  -1047663.044   6128944.640
10 0 59815  13542.000000  0   -2276049.617   -512753.986   6470689.917
10 0 59815  13662.000000  0   -1560049.011     19002.172   6698703.676
10 0 59815  13782.000000  0    -807637.758    537577.455   6809006.236
10 0 59815  13902.000000  0     -32259.552   1033404.832   6799674.275
10 0 59815  14022.000000  0     752082.546   1497554.114   6670872.315
10 0 59815  14142.000000  0    1531078.339   1921892.966   6424850.046
10 0 59815  14262.000000  0    2290370.717   2299229.401   6065904.798
10 0 59815  14382.000000  0    3015819.876   2623434.290   5600311.796
10 0 59815  14502.000000  0    3693769.193   2889542.962   5036221.028
10 0 59815  14622.000000  0    4311305.785   3093833.394   4383519.643
10 0 59815  14742.000000  0    4856510.603   3233879.207   3653664.550
10 0 59815  14862.000000  0    5318698.091   3308577.492   2859485.077
10 0 59815  14982.000000  0    5688632.848   3318147.241   2014955.246
10 0 59815  15102.000000  0    5958720.018   3264101.750   1134945.596
10 0 59815  15222.000000  0    6123166.350   3149194.108    234954.926
10 0 59815  15342.000000  0    6178105.087   2977335.898   -669171.534
10 0 59815  15462.000000  0    6121682.104   2753491.140  -1561529.927
10 0 59815  15582.000000  0    5954101.058   2483550.304  -2426444.677
10 0 59815  15702.000000  0    5677628.270   2174187.821  -3248750.493
10 0 59815  15822.000000  0    5296556.083   1832704.326  -4014062.174
10 0 59815  15942.000000  0    4817126.687   1466858.985  -4709027.326
10 0 59815  16062.000000  0    4247417.307   1084696.517  -5321555.261
10 0 59815  16182.000000  0    3597193.737    694374.224  -5841019.056
10 0 59815  16302.000000  0    2877734.574    303991.757  -6258430.515
10 0 59815  16422.000000  0    2101629.170    -78572.685  -6566584.252
10 0 59815  16542.000000  0    1282555.896   -445816.732  -6760170.581
10 0 59815  16662.000000  0     435042.836   -790756.848  -6835858.832
10 0 59815  16782.000000  0    -425786.962  -1107057.124  -6792347.455
10 0 59815  16902.000000  0   -1284478.353  -1389141.977  -6630383.249
10 0 59815  17022.000000  0   -2125515.152  -1632292.208  -6352750.811
10 0 59815  17142.000000  0   -2933594.529  -1832722.749  -5964228.985
10 0 59815  17262.000000  0   -3693899.534  -1987640.985  -5471517.543
10 0 59815  17382.000000  0   -4392370.209  -2095286.020  -4883134.096
10 0 59815  17502.000000  0   -5015966.728  -2154946.597  -4209277.899
10 0 59815  17622.000000  0   -5552918.615  -2166957.584  -3461663.756
10 0 59815  17742.000000  0   -5992956.252  -2132674.879  -2653326.518
10 0 59815  17862.000000  0   -6327517.838  -2054428.298  -1798398.313
10 0 59815  17982.000000  0   -6549927.139  -1935453.561   -911862.679
10 0 59815  18102.000000  0   -6655536.627  -1779804.551     -9289.111
10 0 59815  18222.000000  0   -6641832.027  -1592247.648    893446.370
10 0 59815  18342.000000  0   -6508494.298  -1378140.347   1780449.013
10 0 59815  18462.000000  0   -6257416.949  -1143297.937   2636094.520
10 0 59815  18582.000000  0   -5892678.542   -893851.532   3445312.775
10 0 59815  18702.000000  0   -5420471.502   -636100.361   4193860.873
10 0 59815  18822.000000  0   -4848986.875   -376363.058   4868578.103
10 0 59815  18942.000000  0   -4188262.343   -120831.828   5457616.592
10 0 59815  19062.000000  0   -3449997.437    124567.925   5950647.616
10 0 59815  19182.000000  0   -2647337.095    354308.860   6339038.928
10 0 59815  19302.000000  0   -1794630.455    563380.545   6615999.853
10 0 59815  19422.000000  0    -907169.468    747394.188   6776694.377
10 0 59815  19542.000000  0       -912.553    902672.106   6818319.444
10 0 59815  19662.000000  0     907801.872   1026319.482   6740150.168
10 0 59815  19782.000000  0    1802548.727   1116278.210   6543551.771
10 0 59815  19902.000000  0    2667112.131   1171361.440   6231957.223
10 0 59815  20022.000000  0    3485779.458   1191268.137   5810811.833
10 0 59815  20142.000000  0    4243629.697   1176577.668   5287482.947
10 0 59815  20262.000000  0    4926808.472   1128724.597   4671137.106
10 0 59815  20382.000000  0    5522789.044   1049954.119   3972587.072
10 0 59815  20502.000000  0    6020612.529    943259.070   3204105.120
10 0 59815  20622.000000  0    6411098.721    812299.326   2379207.159
10 0 59815  20742.000000  0    6687024.433    661305.006   1512414.167
10 0 59815  20862.000000  0    6843266.262    494966.931    618991.280
10 0 59815  20982.000000  0    6876900.773    318315.697   -285327.977
10 0 59815  21102.000000  0    6787261.568    136592.982  -1184628.070
10 0 59815  21222.000000  0    6575949.503    -44881.338  -2063100.615
10 0 59815  21342.000000  0    6246797.227   -220843.331  -2905329.481
10 0 59815  21462.000000  0    5805790.298   -386216.894  -3696566.100
10 0 59815  21582.000000  0    5260946.351   -536239.648  -4422989.787
10 0 59815  21702.000000  0    4622155.773   -666579.370  -5071946.784
10 0 59815  21822.000000  0    3900990.605   -773438.592  -5632164.095
10 0 59815  21942.000000  0    3110485.728   -853646.533  -6093936.987
10 0 59815  22062.000000  0    2264896.123   -904735.563  -6449286.613
10 0 59815  22182.000000  0    1379436.866   -924999.830  -6692085.982
10 0 59815  22302.000000  0     470010.915   -913537.578  -6818155.304
10 0 59815  22422.000000  0    -447072.749   -870274.900  -6825326.494
10 0 59815  22542.000000  0   -1355384.907   -795971.014  -6713475.786
10 0 59815  22662.000000  0   -2238663.815   -692205.205  -6484526.130
10 0 59815  22782.000000  0   -3081099.911   -561345.286  -6142416.390
10 0 59815  22902.000000  0   -3867612.386   -406498.557  -5693041.181
99
